[{"OBJECT_NAME":"DIWATA-2B","OBJECT_ID":"2018-084H","EPOCH":"2026-03-09T23:44:16.821312","MEAN_MOTION":14.99967379,"ECCENTRICITY":0.00117782,"INCLINATION":98.1039,"RA_OF_ASC_NODE":261.0381,"ARG_OF_PERICENTER":125.8755,"MEAN_ANOMALY":234.3563,"EPHEMERIS_TYPE":0,"CLASSIFICATION_TYPE":"U","NORAD_CAT_ID":43678,"ELEMENT_SET_NO":999,"REV_AT_EPOCH":40134,"BSTAR":0.00041230334,"MEAN_MOTION_DOT":5.066e-5,"MEAN_MOTION_DDOT":0},{"OBJECT_NAME":"STARLINK-5526","OBJECT_ID":"2023-064BA","EPOCH":"2026-03-09T11:31:27.690240","MEAN_MOTION":14.98328014,"ECCENTRICITY":0.00030473,"INCLINATION":69.9993,"RA_OF_ASC_NODE":104.8865,"ARG_OF_PERICENTER":264.999,"MEAN_ANOMALY":95.0821,"EPHEMERIS_TYPE":0,"CLASSIFICATION_TYPE":"U","NORAD_CAT_ID":56496,"ELEMENT_SET_NO":999,"REV_AT_EPOCH":15620,"BSTAR":-3.1848949e-5,"MEAN_MOTION_DOT":-4.73e-6,"MEAN_MOTION_DDOT":0}]
